OBJECT_NAME,OBJECT_ID,EPOCH,MEAN_MOTION,ECCENTRICITY,INCLINATION,RA_OF_ASC_NODE,ARG_OF_PERICENTER,MEAN_ANOMALY,EPHEMERIS_TYPE,CLASSIFICATION_TYPE,NORAD_CAT_ID,ELEMENT_SET_NO,REV_AT_EPOCH,BSTAR,MEAN_MOTION_DOT,MEAN_MOTION_DDOT
TANSAT,2016-081A,2026-06-18T00:03:25.771104,14.59951559,.00195622,98.5357,169.2840,309.6610,50.2862,0,U,41898,999,50474,.54840678E-4,.213E-5,0
JILIN-1 03,2017-002B,2026-06-17T22:25:49.588608,15.41591646,.00069039,97.1944,176.0085,152.3315,207.8301,0,U,41914,999,52197,.25381238E-3,.106E-3,0
CARTOSAT-2D,2017-008A,2026-06-17T22:46:17.533920,15.19209494,.00038079,97.4106,228.2406,231.5221,128.5673,0,U,41948,999,51769,.10989386E-3,.2246E-4,0
CARTOSAT-2E,2017-036C,2026-06-17T23:11:58.088256,15.19258220,.00024543,97.4274,228.7560,315.9975,44.1064,0,U,42767,999,49826,.12863107E-3,.2644E-4,0
IRIDIUM 113,2017-039A,2026-06-17T20:50:19.195008,14.34217634,.00021674,86.3967,321.8941,89.2758,270.8686,0,U,42803,999,47128,-.1672776E-5,.15E-6,0
NORSAT 2,2017-042D,2026-06-17T22:45:19.149120,15.21940975,.00104313,97.4039,342.3760,54.8941,305.3272,0,U,42828,999,48785,.39414918E-3,.8931E-4,0
TECHNOSAT,2017-042E,2026-06-17T10:46:10.681536,15.04963189,.00189679,97.4288,326.0959,93.3985,266.9412,0,U,42829,999,48674,.22413538E-3,.313E-4,0
FLYING LAPTOP,2017-042G,2026-06-17T22:03:00.734400,15.01150240,.0019572,97.4687,324.4230,119.1525,241.1661,0,U,42831,999,48656,.23192411E-3,.2926E-4,0
WNISAT 1R,2017-042L,2026-06-17T21:23:43.770048,15.01765499,.00112573,97.4839,324.9882,144.9931,215.2036,0,U,42835,999,48661,.14504393E-3,.1833E-4,0
LEMUR-2-GREENBERG,2017-042N,2026-06-17T11:29:53.306016,15.31334775,.00085082,97.3816,349.1017,13.0067,347.1392,0,U,42837,999,48843,.4123969E-3,.12423E-3,0
LEMUR-2-FURIAUS,2017-042R,2026-06-17T11:21:14.840352,15.30258907,.00081756,97.3768,347.0502,68.3707,291.8403,0,U,42840,999,48825,.45598177E-3,.13294E-3,0
CORVUS BC2,2017-042X,2026-06-17T22:12:50.745312,15.06302248,.0014397,97.4070,330.2460,108.1881,252.0916,0,U,42846,999,48717,.22865818E-3,.3308E-4,0
CORVUS BC1,2017-042Y,2026-06-17T22:04:57.713088,15.06471758,.00134123,97.4104,331.0556,87.0132,273.2631,0,U,42847,999,48720,.20165978E-3,.2922E-4,0
VRSS-2,2017-060A,2026-06-17T22:19:29.927136,14.81195333,.00186337,97.6506,206.6233,96.5859,263.7476,0,U,42954,999,46856,.10939522E-3,.804E-5,0
MOHAMMED VI-A,2017-070A,2026-06-17T22:56:45.560832,14.77068984,.00013448,97.9561,241.2763,71.0412,289.0944,0,U,43005,999,46409,.51400914E-4,.312E-5,0
FENGYUN 3D,2017-072A,2026-06-17T22:08:31.164288,14.19738837,.00025377,99.0126,143.3584,61.5377,298.6054,0,U,43010,999,44509,-.10503042E-4,-.68E-6,0
NOAA 20 (JPSS-1),2017-073A,2026-06-17T22:01:25.577760,14.19511863,.00002986,98.7770,108.3738,103.3678,256.7532,0,U,43013,999,44457,.43237286E-4,.47E-6,0
MAKERSAT 0,2017-073D,2026-06-17T15:17:26.646144,15.32110935,.01050745,97.4617,51.1594,271.3551,87.5656,0,U,43016,999,46653,.37519118E-3,.1377E-3,0
RADFXSAT (FOX-1B),2017-073E,2026-06-17T14:31:00.659136,15.12722439,.0149538,97.4696,35.8108,327.7970,31.4193,0,U,43017,999,46545,.24962E-3,.5679E-4,0
JILIN-1 04,2017-074A,2026-06-17T22:18:36.262368,15.42457167,.00042529,97.4864,278.5615,175.6655,184.4629,0,U,43022,999,47438,.25190629E-3,.10818E-3,0
JILIN-1 05,2017-074B,2026-06-17T21:41:47.426496,15.33886108,.00044321,97.4869,275.0676,211.0176,149.0805,0,U,43023,999,47411,.21597535E-3,.6999E-4,0
JILIN-1 06,2017-074C,2026-06-17T22:34:56.685504,15.33700529,.00057619,97.4795,272.1138,227.3795,132.6962,0,U,43024,999,47395,.15926996E-3,.511E-4,0
IRIDIUM 116,2017-083C,2026-06-17T20:13:47.115552,14.34217649,.00018832,86.3960,321.7272,99.6153,260.5256,0,U,43072,999,44426,-.4065099E-5,.8E-7,0
IRIDIUM 130,2017-083D,2026-06-17T21:08:34.879200,14.34219070,.00019414,86.3972,321.9864,92.8139,267.3279,0,U,43073,999,44421,.44661147E-4,.145E-5,0
LKW-2,2017-084A,2026-06-17T22:42:42.162912,15.26347558,.000114,97.1187,208.7062,170.2516,189.8746,0,U,43080,999,47180,.20035302E-3,.5137E-4,0
SUPERVIEW-1 03,2018-002A,2026-06-17T22:42:04.052736,15.39280287,.00472331,97.3135,253.7820,176.8498,183.3055,0,U,43099,999,46848,.38776572E-3,.15635E-3,0
CARTOSAT-2F,2018-004A,2026-06-17T22:23:29.193792,15.19216573,.00006823,97.4785,228.5601,200.2138,159.9070,0,U,43111,999,46744,.90740348E-4,.1842E-4,0
LKW-3,2018-006A,2026-06-17T23:11:31.685280,15.35266680,.00020914,97.6611,329.5706,319.8094,40.2994,0,U,43146,999,46883,.32744246E-3,.11132E-3,0
