TANSAT                  
1 41898U 16081A   26169.00238161  .00000213  00000+0  54841-4 0  9992
2 41898  98.5357 169.2840 0019562 309.6610  50.2862 14.59951559504743
JILIN-1 03              
1 41914U 17002B   26168.93460172  .00010600  00000+0  25381-3 0  9992
2 41914  97.1944 176.0085 0006903 152.3315 207.8301 15.41591646521977
CARTOSAT-2D             
1 41948U 17008A   26168.94881405  .00002246  00000+0  10989-3 0  9997
2 41948  97.4106 228.2406 0003807 231.5221 128.5673 15.19209494517697
CARTOSAT-2E             
1 42767U 17036C   26168.96664454  .00002644  00000+0  12863-3 0  9998
2 42767  97.4274 228.7560 0002454 315.9975  44.1064 15.19258220498268
IRIDIUM 113             
1 42803U 17039A   26168.86827772  .00000015  00000+0 -16728-5 0  9992
2 42803  86.3967 321.8941 0002167  89.2758 270.8686 14.34217634471285
NORSAT 2                
1 42828U 17042D   26168.94813830  .00008931  00000+0  39415-3 0  9992
2 42828  97.4039 342.3760 0010431  54.8941 305.3272 15.21940975487850
TECHNOSAT               
1 42829U 17042E   26168.44873474  .00003130  00000+0  22414-3 0  9995
2 42829  97.4288 326.0959 0018967  93.3985 266.9412 15.04963189486742
FLYING LAPTOP           
1 42831U 17042G   26168.91875850  .00002926  00000+0  23192-3 0  9996
2 42831  97.4687 324.4230 0019572 119.1525 241.1661 15.01150240486566
WNISAT 1R               
1 42835U 17042L   26168.89147882  .00001833  00000+0  14504-3 0  9997
2 42835  97.4839 324.9882 0011257 144.9931 215.2036 15.01765499486618
LEMUR-2-GREENBERG       
1 42837U 17042N   26168.47908919  .00012423  00000+0  41240-3 0  9993
2 42837  97.3816 349.1017 0008508  13.0067 347.1392 15.31334775488438
LEMUR-2-FURIAUS         
1 42840U 17042R   26168.47308843  .00013294  00000+0  45598-3 0  9994
2 42840  97.3768 347.0502 0008175  68.3707 291.8403 15.30258907488257
CORVUS BC2              
1 42846U 17042X   26168.92558733  .00003308  00000+0  22866-3 0  9993
2 42846  97.4070 330.2460 0014397 108.1881 252.0916 15.06302248487175
CORVUS BC1              
1 42847U 17042Y   26168.92011242  .00002922  00000+0  20166-3 0  9995
2 42847  97.4104 331.0556 0013412  87.0132 273.2631 15.06471758487206
VRSS-2                  
1 42954U 17060A   26168.93020749  .00000804  00000+0  10940-3 0  9993
2 42954  97.6506 206.6233 0018633  96.5859 263.7476 14.81195333468566
MOHAMMED VI-A           
1 43005U 17070A   26168.95608288  .00000312  00000+0  51401-4 0  9996
2 43005  97.9561 241.2763 0001344  71.0412 289.0944 14.77068984464096
FENGYUN 3D              
1 43010U 17072A   26168.92258292 -.00000068  00000+0 -10503-4 0  9995
2 43010  99.0126 143.3584 0002537  61.5377 298.6054 14.19738837445098
NOAA 20 (JPSS-1)        
1 43013U 17073A   26168.91765715  .00000047  00000+0  43237-4 0  9996
2 43013  98.7770 108.3738 0000298 103.3678 256.7532 14.19511863444571
MAKERSAT 0              
1 43016U 17073D   26168.63711396  .00013770  00000+0  37519-3 0  9996
2 43016  97.4617  51.1594 0105074 271.3551  87.5656 15.32110935466537
RADFXSAT (FOX-1B)       
1 43017U 17073E   26168.60486874  .00005679  00000+0  24962-3 0  9991
2 43017  97.4696  35.8108 0149538 327.7970  31.4193 15.12722439465459
JILIN-1 04              
1 43022U 17074A   26168.92958637  .00010818  00000+0  25191-3 0  9990
2 43022  97.4864 278.5615 0004252 175.6655 184.4629 15.42457167474385
JILIN-1 05              
1 43023U 17074B   26168.90402114  .00006999  00000+0  21598-3 0  9995
2 43023  97.4869 275.0676 0004432 211.0176 149.0805 15.33886108474118
JILIN-1 06              
1 43024U 17074C   26168.94093386  .00005110  00000+0  15927-3 0  9990
2 43024  97.4795 272.1138 0005761 227.3795 132.6962 15.33700529473956
IRIDIUM 116             
1 43072U 17083C   26168.84290643  .00000008  00000+0 -40651-5 0  9993
2 43072  86.3960 321.7272 0001883  99.6153 260.5256 14.34217649444264
IRIDIUM 130             
1 43073U 17083D   26168.88095925  .00000145  00000+0  44661-4 0  9999
2 43073  86.3972 321.9864 0001941  92.8139 267.3279 14.34219070444216
LKW-2                   
1 43080U 17084A   26168.94632133  .00005137  00000+0  20035-3 0  9997
2 43080  97.1187 208.7062 0001140 170.2516 189.8746 15.26347558471802
SUPERVIEW-1 03          
1 43099U 18002A   26168.94588024  .00015635  00000+0  38777-3 0  9993
2 43099  97.3135 253.7820 0047233 176.8498 183.3055 15.39280287468484
CARTOSAT-2F             
1 43111U 18004A   26168.93297678  .00001842  00000+0  90740-4 0  9995
2 43111  97.4785 228.5601 0000682 200.2138 159.9070 15.19216573467444
LKW-3                   
1 43146U 18006A   26168.96633895  .00011132  00000+0  32744-3 0  9995
2 43146  97.6611 329.5706 0002091 319.8094  40.2994 15.35266680468837
